{"type": "FeatureCollection", "features": [ {"type": "Feature", "properties": {"norad_id": 32260, "name": "GPS BIIRM-4 (PRN 15)", "group": "gnss", "lat": -41.639644794051506, "lon": 47.189891951462, "alt_km": 20519.819142607575, "timestamp": "2025-12-20T03:42:47.635210+00:00", "meta": {"OBJECT_NAME": "GPS BIIRM-4 (PRN 15)", "OBJECT_ID": "2007-047A", "EPOCH": "2025-12-19T17:36:20.111040", "MEAN_MOTION": 2.00564307, "ECCENTRICITY": 0.0164067, "INCLINATION": 53.9598, "RA_OF_ASC_NODE": 87.4697, "ARG_OF_PERICENTER": 85.3347, "MEAN_ANOMALY": 276.5368, "EPHEMERIS_TYPE": 0, "CLASSIFICATION_TYPE": "U", "NORAD_CAT_ID": 32260, "ELEMENT_SET_NO": 999, "REV_AT_EPOCH": 13321, "BSTAR": 0, "MEAN_MOTION_DOT": -3.5e-07, "MEAN_MOTION_DDOT": 0}, "tle": {"line1": "1 32260U 07047A   25353.73356610 -.00000035  00000+0  00000+0 0  9997", "line2": "2 32260  53.9598  87.4697 0164067  85.3347 276.5368  2.00564307133213"}}, "geometry": {"type": "Point", "coordinates": [47.189891951462, -41.639644794051506]}}, {"type": "Feature", "properties": {"norad_id": 32275, "name": "COSMOS 2433 (720)", "group": "gnss", "lat": 18.428104360653773, "lon": -29.396743021191888, "alt_km": 19135.507834901866, "timestamp": "2025-12-20T03:42:47.635223+00:00", "meta": {"OBJECT_NAME": "COSMOS 2433 (720)", "OBJECT_ID": "2007-052A", "EPOCH": "2025-12-19T04:33:13.000320", "MEAN_MOTION": 2.13104199, "ECCENTRICITY": 0.0005237, "INCLINATION": 65.6796, "RA_OF_ASC_NODE": 321.9886, "ARG_OF_PERICENTER": 255.1824, "MEAN_ANOMALY": 104.7517, "EPHEMERIS_TYPE": 0, "CLASSIFICATION_TYPE": "U", "NORAD_CAT_ID": 32275, "ELEMENT_SET_NO": 999, "REV_AT_EPOCH": 14122, "BSTAR": 0, "MEAN_MOTION_DOT": -5.9e-07, "MEAN_MOTION_DDOT": 0}, "tle": {"line1": "1 32275U 07052A   25353.18973380 -.00000059  00000+0  00000+0 0  9993", "line2": "2 32275  65.6796 321.9886 0005237 255.1824 104.7517  2.13104199141226"}}, "geometry": {"type": "Point", "coordinates": [-29.396743021191888, 18.428104360653773]}}, {"type": "Feature", "properties": {"norad_id": 32276, "name": "COSMOS 2432 (719)", "group": "gnss", "lat": -31.75861354348965, "lon": -54.17515121248793, "alt_km": 19105.57281581723, "timestamp": "2025-12-20T03:42:47.635235+00:00", "meta": {"OBJECT_NAME": "COSMOS 2432 (719)", "OBJECT_ID": "2007-052B", "EPOCH": "2025-12-19T12:16:13.975104", "MEAN_MOTION": 2.13103394, "ECCENTRICITY": 0.0011354, "INCLINATION": 65.6952, "RA_OF_ASC_NODE": 322.1022, "ARG_OF_PERICENTER": 313.8406, "MEAN_ANOMALY": 237.2136, "EPHEMERIS_TYPE": 0, "CLASSIFICATION_TYPE": "U", "NORAD_CAT_ID": 32276, "ELEMENT_SET_NO": 999, "REV_AT_EPOCH": 14125, "BSTAR": 0, "MEAN_MOTION_DOT": -5.7e-07, "MEAN_MOTION_DDOT": 0}, "tle": {"line1": "1 32276U 07052B   25353.51127286 -.00000057  00000+0  00000+0 0  9995", "line2": "2 32276  65.6952 322.1022 0011354 313.8406 237.2136  2.13103394141259"}}, "geometry": {"type": "Point", "coordinates": [-54.17515121248793, -31.75861354348965]}}, {"type": "Feature", "properties": {"norad_id": 32384, "name": "GPS BIIRM-5 (PRN 29)", "group": "gnss", "lat": 52.5259072250822, "lon": -13.61985840679863, "alt_km": 20170.169539712817, "timestamp": "2025-12-20T03:42:47.635247+00:00", "meta": {"OBJECT_NAME": "GPS BIIRM-5 (PRN 29)", "OBJECT_ID": "2007-062A", "EPOCH": "2025-12-19T04:08:10.010976", "MEAN_MOTION": 2.00577702, "ECCENTRICITY": 0.00322663, "INCLINATION": 55.1765, "RA_OF_ASC_NODE": 281.388, "ARG_OF_PERICENTER": 162.2119, "MEAN_ANOMALY": 283.9132, "EPHEMERIS_TYPE": 0, "CLASSIFICATION_TYPE": "U", "NORAD_CAT_ID": 32384, "ELEMENT_SET_NO": 999, "REV_AT_EPOCH": 13190, "BSTAR": 0, "MEAN_MOTION_DOT": -3.8e-07, "MEAN_MOTION_DDOT": 0}, "tle": {"line1": "1 32384U 07062A   25353.17233809 -.00000038  00000+0  00000+0 0  9996", "line2": "2 32384  55.1765 281.3880 0032266 162.2119 283.9132  2.00577702131904"}}, "geometry": {"type": "Point", "coordinates": [-13.61985840679863, 52.5259072250822]}}, {"type": "Feature", "properties": {"norad_id": 32393, "name": "COSMOS 2434 (721)", "group": "gnss", "lat": -64.27837076708077, "lon": 109.74998296155074, "alt_km": 19147.669220194577, "timestamp": "2025-12-20T03:42:47.635259+00:00", "meta": {"OBJECT_NAME": "COSMOS 2434 (721)", "OBJECT_ID": "2007-065A", "EPOCH": "2025-12-19T19:17:09.813120", "MEAN_MOTION": 2.13101403, "ECCENTRICITY": 0.0004636, "INCLINATION": 64.315, "RA_OF_ASC_NODE": 197.9648, "ARG_OF_PERICENTER": 71.2992, "MEAN_ANOMALY": 290.1665, "EPHEMERIS_TYPE": 0, "CLASSIFICATION_TYPE": "U", "NORAD_CAT_ID": 32393, "ELEMENT_SET_NO": 999, "REV_AT_EPOCH": 13995, "BSTAR": 0, "MEAN_MOTION_DOT": 1.03e-06, "MEAN_MOTION_DDOT": 0}, "tle": {"line1": "1 32393U 07065A   25353.80358580  .00000103  00000+0  00000+0 0  9995", "line2": "2 32393  64.3150 197.9648 0004636  71.2992 290.1665  2.13101403139955"}}, "geometry": {"type": "Point", "coordinates": [109.74998296155074, -64.27837076708077]}}, {"type": "Feature", "properties": {"norad_id": 32395, "name": "COSMOS 2436 (723)", "group": "gnss", "lat": 38.69575342444246, "lon": -139.2946956893631, "alt_km": 19087.82524440704, "timestamp": "2025-12-20T03:42:47.635271+00:00", "meta": {"OBJECT_NAME": "COSMOS 2436 (723)", "OBJECT_ID": "2007-065C", "EPOCH": "2025-12-19T09:42:12.629376", "MEAN_MOTION": 2.13100261, "ECCENTRICITY": 0.0017823, "INCLINATION": 64.3238, "RA_OF_ASC_NODE": 198.0487, "ARG_OF_PERICENTER": 9.8735, "MEAN_ANOMALY": 178.3327, "EPHEMERIS_TYPE": 0, "CLASSIFICATION_TYPE": "U", "NORAD_CAT_ID": 32395, "ELEMENT_SET_NO": 999, "REV_AT_EPOCH": 13989, "BSTAR": 0, "MEAN_MOTION_DOT": 1.05e-06, "MEAN_MOTION_DDOT": 0}, "tle": {"line1": "1 32395U 07065C   25353.40431284  .00000105  00000+0  00000+0 0  9998", "line2": "2 32395  64.3238 198.0487 0017823   9.8735 178.3327  2.13100261139897"}}, "geometry": {"type": "Point", "coordinates": [-139.2946956893631, 38.69575342444246]}}, {"type": "Feature", "properties": {"norad_id": 32711, "name": "GPS BIIRM-6 (PRN 07)", "group": "gnss", "lat": 1.3668234441913398, "lon": 158.04364961585236, "alt_km": 20414.610501545725, "timestamp": "2025-12-20T03:42:47.635283+00:00", "meta": {"OBJECT_NAME": "GPS BIIRM-6 (PRN 07)", "OBJECT_ID": "2008-012A", "EPOCH": "2025-12-19T15:41:26.858112", "MEAN_MOTION": 2.00565937, "ECCENTRICITY": 0.0202735, "INCLINATION": 54.4779, "RA_OF_ASC_NODE": 157.0969, "ARG_OF_PERICENTER": 245.0276, "MEAN_ANOMALY": 112.8468, "EPHEMERIS_TYPE": 0, "CLASSIFICATION_TYPE": "U", "NORAD_CAT_ID": 32711, "ELEMENT_SET_NO": 999, "REV_AT_EPOCH": 13015, "BSTAR": 0, "MEAN_MOTION_DOT": 6.7e-07, "MEAN_MOTION_DDOT": 0}, "tle": {"line1": "1 32711U 08012A   25353.65378308  .00000067  00000+0  00000+0 0  9994", "line2": "2 32711  54.4779 157.0969 0202735 245.0276 112.8468  2.00565937130151"}}, "geometry": {"type": "Point", "coordinates": [158.04364961585236, 1.3668234441913398]}}, {"type": "Feature", "properties": {"norad_id": 35752, "name": "GPS BIIRM-8 (PRN 05)", "group": "gnss", "lat": 15.606203586333109, "lon": 45.331853062503825, "alt_km": 20116.929700170283, "timestamp": "2025-12-20T03:42:47.635294+00:00", "meta": {"OBJECT_NAME": "GPS BIIRM-8 (PRN 05)", "OBJECT_ID": "2009-043A", "EPOCH": "2025-12-18T04:21:14.473728", "MEAN_MOTION": 2.00565462, "ECCENTRICITY": 0.00516833, "INCLINATION": 56.0947, "RA_OF_ASC_NODE": 34.5684, "ARG_OF_PERICENTER": 81.8123, "MEAN_ANOMALY": 312.8651, "EPHEMERIS_TYPE": 0, "CLASSIFICATION_TYPE": "U", "NORAD_CAT_ID": 35752, "ELEMENT_SET_NO": 999, "REV_AT_EPOCH": 11973, "BSTAR": 0, "MEAN_MOTION_DOT": -7.2e-07, "MEAN_MOTION_DDOT": 0}, "tle": {"line1": "1 35752U 09043A   25352.18141752 -.00000072  00000+0  00000+0 0  9992", "line2": "2 35752  56.0947  34.5684 0051683  81.8123 312.8651  2.00565462119738"}}, "geometry": {"type": "Point", "coordinates": [45.331853062503825, 15.606203586333109]}}, {"type": "Feature", "properties": {"norad_id": 36111, "name": "COSMOS 2456 (730)", "group": "gnss", "lat": 57.10762534736263, "lon": 123.42905033167948, "alt_km": 19128.863551410937, "timestamp": "2025-12-20T03:42:47.635306+00:00", "meta": {"OBJECT_NAME": "COSMOS 2456 (730)", "OBJECT_ID": "2009-070A", "EPOCH": "2025-12-19T16:51:58.589280", "MEAN_MOTION": 2.13103691, "ECCENTRICITY": 0.0003266, "INCLINATION": 64.904, "RA_OF_ASC_NODE": 77.0998, "ARG_OF_PERICENTER": 297.1615, "MEAN_ANOMALY": 144.0755, "EPHEMERIS_TYPE": 0, "CLASSIFICATION_TYPE": "U", "NORAD_CAT_ID": 36111, "ELEMENT_SET_NO": 999, "REV_AT_EPOCH": 12460, "BSTAR": 0, "MEAN_MOTION_DOT": -2.7e-07, "MEAN_MOTION_DDOT": 0}, "tle": {"line1": "1 36111U 09070A   25353.70276145 -.00000027  00000+0  00000+0 0  9996", "line2": "2 36111  64.9040  77.0998 0003266 297.1615 144.0755  2.13103691124600"}}, "geometry": {"type": "Point", "coordinates": [123.42905033167948, 57.10762534736263]}}, {"type": "Feature", "properties": {"norad_id": 36112, "name": "COSMOS 2457 (733)", "group": "gnss", "lat": -15.437511144934017, "lon": -95.6277938073931, "alt_km": 19122.983065556036, "timestamp": "2025-12-20T03:42:47.635317+00:00", "meta": {"OBJECT_NAME": "COSMOS 2457 (733)", "OBJECT_ID": "2009-070B", "EPOCH": "2025-12-19T12:47:22.832160", "MEAN_MOTION": 2.13101086, "ECCENTRICITY": 0.0004579, "INCLINATION": 64.8894, "RA_OF_ASC_NODE": 76.9529, "ARG_OF_PERICENTER": 161.1215, "MEAN_ANOMALY": 278.8833, "EPHEMERIS_TYPE": 0, "CLASSIFICATION_TYPE": "U", "NORAD_CAT_ID": 36112, "ELEMENT_SET_NO": 999, "REV_AT_EPOCH": 12460, "BSTAR": 0, "MEAN_MOTION_DOT": -2.8e-07, "MEAN_MOTION_DDOT": 0}, "tle": {"line1": "1 36112U 09070B   25353.53290315 -.00000028  00000+0  00000+0 0  9994", "line2": "2 36112  64.8894  76.9529 0004579 161.1215 278.8833  2.13101086124608"}}, "geometry": {"type": "Point", "coordinates": [-95.6277938073931, -15.437511144934017]}}]}